$$SOE
2461302.500000000, A.D. 2026-Sep-19 00:00:00.0000, -4.090065708701950E+08, -2.003813515883536E+08, 7.422777498269594E+07,
2461309.500000000, A.D. 2026-Sep-26 00:00:00.0000, -4.047528698545880E+08, -2.075438040102747E+08, 7.386263197115722E+07,
2461316.500000000, A.D. 2026-Oct-03 00:00:00.0000, -4.002983641679362E+08, -2.146032816805669E+08, 7.346084231862280E+07,
2461323.500000000, A.D. 2026-Oct-10 00:00:00.0000, -3.956443281595028E+08, -2.215557829089265E+08, 7.302243362636241E+07,
2461330.500000000, A.D. 2026-Oct-17 00:00:00.0000, -3.907920492142031E+08, -2.283972665516136E+08, 7.254743387786499E+07,
2461337.500000000, A.D. 2026-Oct-24 00:00:00.0000, -3.857428303558143E+08, -2.351236479897844E+08, 7.203587166494265E+07,
2461344.500000000, A.D. 2026-Oct-31 00:00:00.0000, -3.804979929314029E+08, -2.417307952205797E+08, 7.148777641671090E+07,
2461351.500000000, A.D. 2026-Nov-07 00:00:00.0000, -3.750588790501401E+08, -2.482145249799805E+08, 7.090317860821252E+07,
2461358.500000000, A.D. 2026-Nov-14 00:00:00.0000, -3.694268535888968E+08, -2.545705980031135E+08, 7.028211000478004E+07,
2461365.500000000, A.D. 2026-Nov-21 00:00:00.0000, -3.636033075903924E+08, -2.607947127333909E+08, 6.962460416612676E+07,
2461372.500000000, A.D. 2026-Nov-28 00:00:00.0000, -3.575896640676062E+08, -2.668825004829344E+08, 6.893069705831364E+07,
2461379.500000000, A.D. 2026-Dec-05 00:00:00.0000, -3.513873826135951E+08, -2.728295226959253E+08, 6.820042739115545E+07,
2461386.500000000, A.D. 2026-Dec-12 00:00:00.0000, -3.449979626722998E+08, -2.786312671981429E+08, 6.743383692366245E+07,
2461393.500000000, A.D. 2026-Dec-19 00:00:00.0000, -3.384229473783996E+08, -2.842831434198068E+08, 6.663097091441932E+07,
2461400.500000000, A.D. 2026-Dec-26 00:00:00.0000, -3.316639281305559E+08, -2.897804774543607E+08, 6.579187866235552E+07,
2461407.500000000, A.D. 2027-Jan-02 00:00:00.0000, -3.247225496468795E+08, -2.951185071404140E+08, 6.491661410082012E+07,
2461414.500000000, A.D. 2027-Jan-09 00:00:00.0000, -3.176005154138353E+08, -3.002923771440846E+08, 6.400523644034604E+07,
2461421.500000000, A.D. 2027-Jan-16 00:00:00.0000, -3.102995935247700E+08, -3.052971340308480E+08, 6.305781086255322E+07,
2461428.500000000, A.D. 2027-Jan-23 00:00:00.0000, -3.028216228965822E+08, -3.101277213650674E+08, 6.207440926309004E+07,
2461435.500000000, A.D. 2027-Jan-30 00:00:00.0000, -2.951685197144395E+08, -3.147789748845823E+08, 6.105511102828939E+07,
2461442.500000000, A.D. 2027-Feb-06 00:00:00.0000, -2.873422837208893E+08, -3.192456174110660E+08, 6.000000384071020E+07,
2461449.500000000, A.D. 2027-Feb-13 00:00:00.0000, -2.793450048542292E+08, -3.235222522779833E+08, 5.890918466228527E+07,
2461456.500000000, A.D. 2027-Feb-20 00:00:00.0000, -2.711788726474468E+08, -3.276033560694506E+08, 5.778276105437350E+07,
2461463.500000000, A.D. 2027-Feb-27 00:00:00.0000, -2.628461870425885E+08, -3.314832738882470E+08, 5.662085245175759E+07,
2461470.500000000, A.D. 2027-Mar-06 00:00:00.0000, -2.543493676574908E+08, -3.351562152376444E+08, 5.542359127949320E+07,
2461477.500000000, A.D. 2027-Mar-13 00:00:00.0000, -2.456909631634730E+08, -3.386162484771939E+08, 5.419112423617530E+07,
2461484.500000000, A.D. 2027-Mar-20 00:00:00.0000, -2.368736619656653E+08, -3.418572947012331E+08, 5.292361378929506E+07,
2461491.500000000, A.D. 2027-Mar-27 00:00:00.0000, -2.279003040525532E+08, -3.448731216095102E+08, 5.162123983119430E+07,
2461498.500000000, A.D. 2027-Apr-03 00:00:00.0000, -2.187738938884991E+08, -3.476573374444007E+08, 5.028420148679748E+07,
2461505.500000000, A.D. 2027-Apr-10 00:00:00.0000, -2.094976143730876E+08, -3.502033850040207E+08, 4.891271908475025E+07,
2461512.500000000, A.D. 2027-Apr-17 00:00:00.0000, -2.000748419380511E+08, -3.525045357833492E+08, 4.750703630551216E+07,
2461519.500000000, A.D. 2027-Apr-24 00:00:00.0000, -1.905091628024310E+08, -3.545538843499879E+08, 4.606742251205418E+07,
2461526.500000000, A.D. 2027-May-01 00:00:00.0000, -1.808043901935001E+08, -3.563443429800466E+08, 4.459417525740145E+07,
2461533.500000000, A.D. 2027-May-08 00:00:00.0000, -1.709645823414637E+08, -3.578686358698433E+08, 4.308762302317743E+07,
2461540.500000000, A.D. 2027-May-15 00:00:00.0000, -1.609940628690343E+08, -3.591192920461049E+08, 4.154812842735885E+07,
2461547.500000000, A.D. 2027-May-22 00:00:00.0000, -1.508974452725513E+08, -3.600886396567152E+08, 3.997609185772480E+07,
2461554.500000000, A.D. 2027-May-29 00:00:00.0000, -1.406796582813542E+08, -3.607688032195129E+08, 3.837195513054980E+07,
2461561.500000000, A.D. 2027-Jun-05 00:00:00.0000, -1.303459713642029E+08, -3.611517008273013E+08, 3.673620537944016E+07,
2461568.500000000, A.D. 2027-Jun-12 00:00:00.0000, -1.199020225533210E+08, -3.612290410289846E+08, 3.506937942628239E+07,
2461575.500000000, A.D. 2027-Jun-19 00:00:00.0000, -1.093538490883826E+08, -3.609923205000582E+08, 3.337206862343073E+07,
2461582.500000000, A.D. 2027-Jun-26 00:00:00.0000, -9.870792078028840E+07, -3.604328229741109E+08, 3.164492415829027E+07,
2461589.500000000, A.D. 2027-Jul-03 00:00:00.0000, -8.797117614919282E+07, -3.595416196754243E+08, 2.988866285014974E+07,
2461596.500000000, A.D. 2027-Jul-10 00:00:00.0000, -7.715106149322632E+07, -3.583095715368186E+08, 2.810407348121847E+07,
2461603.500000000, A.D. 2027-Jul-17 00:00:00.0000, -6.625557305042099E+07, -3.567273335847409E+08, 2.629202370319062E+07,
2461610.500000000, A.D. 2027-Jul-24 00:00:00.0000, -5.529330229837204E+07, -3.547853619530972E+08, 2.445346755020912E+07,
2461617.500000000, A.D. 2027-Jul-31 00:00:00.0000, -4.427348417737421E+07, -3.524739237516603E+08, 2.258945359184094E+07,
2461624.500000000, A.D. 2027-Aug-07 00:00:00.0000, -3.320604862413424E+07, -3.497831091702420E+08, 2.070113389177594E+07,
2461631.500000000, A.D. 2027-Aug-14 00:00:00.0000, -2.210167788400994E+07, -3.467028466855978E+08, 1.878977401592043E+07,
2461638.500000000, A.D. 2027-Aug-21 00:00:00.0000, -1.097186911909803E+07, -3.432229254416090E+08, 1.685676381063908E+07,
2461645.500000000, A.D. 2027-Aug-28 00:00:00.0000, 1.710010270357801E+05, -3.393330244139290E+08, 1.490362878530662E+07,
2461652.500000000, A.D. 2027-Sep-04 00:00:00.0000, 1.131360869379822E+07, -3.350227467896525E+08, 1.293204245839281E+07,
2461659.500000000, A.D. 2027-Sep-11 00:00:00.0000, 2.244161055003341E+07, -3.302816612833956E+08, 1.094383977984190E+07,
2461666.500000000, A.D. 2027-Sep-18 00:00:00.0000, 3.353956731252947E+07, -3.250993522388419E+08, 8.941031591880426E+06,
2461673.500000000, A.D. 2027-Sep-25 00:00:00.0000, 4.459086356347510E+07, -3.194654799407874E+08, 6.925820112240061E+06,
2461680.500000000, A.D. 2027-Oct-02 00:00:00.0000, 5.557762442176993E+07, -3.133698526117066E+08, 4.900615423991263E+06,
2461687.500000000, A.D. 2027-Oct-09 00:00:00.0000, 6.648062980285806E+07, -3.068025117557748E+08, 2.868052928261057E+06,
2461694.500000000, A.D. 2027-Oct-16 00:00:00.0000, 7.727922733349299E+07, -2.997538327197691E+08, 8.310116693169624E+05,
2461701.500000000, A.D. 2027-Oct-23 00:00:00.0000, 8.795124554072060E+07, -2.922146424354908E+08, -1.207366622573674E+06,
2461708.500000000, A.D. 2027-Oct-30 00:00:00.0000, 9.847290948096679E+07, -2.841763558071870E+08, -3.243657949551553E+06,
2461715.500000000, A.D. 2027-Nov-06 00:00:00.0000, 1.088187599554425E+08, -2.756311317559102E+08, -5.274136002360210E+06,
2461722.500000000, A.D. 2027-Nov-13 00:00:00.0000, 1.189615772479058E+08, -2.665720531296385E+08, -7.294752016718984E+06,
2461729.500000000, A.D. 2027-Nov-20 00:00:00.0000, 1.288723159189311E+08, -2.569933346861338E+08, -9.301115468934834E+06,
2461736.500000000, A.D. 2027-Nov-27 00:00:00.0000, 1.385200567172821E+08, -2.468905579521617E+08, -1.128847615167752E+07,
2461743.500000000, A.D. 2027-Dec-04 00:00:00.0000, 1.478719789352033E+08, -2.362609333686917E+08, -1.325170816696028E+07,
2461750.500000000, A.D. 2027-Dec-11 00:00:00.0000, 1.568933589951715E+08, -2.251035913340087E+08, -1.518529684572025E+07,
2461757.500000000, A.D. 2027-Dec-18 00:00:00.0000, 1.655476028953500E+08, -2.134199021787190E+08, -1.708332983024915E+07,
2461764.500000000, A.D. 2027-Dec-25 00:00:00.0000, 1.737963209776792E+08, -2.012138234619225E+08, -1.893949373043160E+07,
2461771.500000000, A.D. 2028-Jan-01 00:00:00.0000, 1.815994541879518E+08, -1.884922712209548E+08, -2.074707796480276E+07,
$$EOE